ONEWEB-0712             
1 54680U 22166AQ  26113.64619572  .00000162  00000+0  38981-3 0  9993
2 54680  87.9079 239.6062 0002331  97.4522 262.6874 13.16594188164889
ONEWEB-0714             
1 54681U 22166AR  26113.67184966  .00000064  00000+0  12343-3 0  9996
2 54681  87.9214 254.8337 0002105  98.7360 261.4013 13.21824213164331
ONEWEB-0532             
1 55140U 23004A   26114.19459995  .00000070  00000+0  14608-3 0  9997
2 55140  87.9186  16.5925 0001503  86.9691 273.1612 13.17648679160474
ONEWEB-0533             
1 55141U 23004B   26114.17654614 -.00000388  00000+0 -11134-2 0  9995
2 55141  87.9002   1.4010 0001867  85.4504 274.6837 13.12443014160971
ONEWEB-0541             
1 55142U 23004C   26114.24048637 -.00000073  00000+0 -24292-3 0  9997
2 55142  87.8931  31.7787 0001685  74.7848 285.3467 13.11415837158874
ONEWEB-0543             
1 55143U 23004D   26114.13977573 -.00000200  00000+0 -54113-3 0  9993
2 55143  87.9195 346.2240 0001985  79.4370 280.6986 13.18682006162578
ONEWEB-0544             
1 55144U 23004E   26114.13315204  .00000883  00000+0  22061-2 0  9992
2 55144  87.9197 346.2248 0001726  74.5984 285.5339 13.18692831162572
ONEWEB-0560             
1 55145U 23004F   26114.20241727  .00001345  00000+0  33783-2 0  9996
2 55145  87.9199 346.2000 0001924  78.6995 281.4353 13.18705122162599
ONEWEB-0565             
1 55146U 23004G   26114.19577783  .00001511  00000+0  37969-2 0  9994
2 55146  87.9197 346.2326 0001413  73.2702 286.8585 13.18726110162584
ONEWEB-0567             
1 55147U 23004H   26114.18915216  .00003794  00000+0  95774-2 0  9994
2 55147  87.9202 346.2159 0001577  67.0573 293.0726 13.18744224162587
ONEWEB-0569             
1 55148U 23004J   26114.15056760 -.00000058  00000+0 -19374-3 0  9997
2 55148  87.8977 330.9803 0002025  57.8450 302.2875 13.13469796163089
ONEWEB-0570             
1 55149U 23004K   26114.17950335 -.00015466  00000+0 -39358-1 0  9992
2 55149  87.9198 346.2154 0001403  99.6218 260.5073 13.18636814162571
ONEWEB-0571             
1 55150U 23004L   26114.17289180 -.00000908  00000+0 -23392-2 0  9994
2 55150  87.9198 346.2157 0002357  55.9470 304.1885 13.18584007162583
ONEWEB-0572             
1 55151U 23004M   26114.22497285  .00000080  00000+0  17271-3 0  9997
2 55151  87.9183  16.5878 0001669  73.8972 286.2344 13.17647636160378
ONEWEB-0573             
1 55152U 23004N   26114.16625980 -.00005553  00000+0 -14138-1 0  9995
2 55152  87.9198 346.2189 0001500  62.9505 297.1780 13.18624822162570
ONEWEB-0588             
1 55153U 23004P   26114.15963132 -.00005016  00000+0 -12770-1 0  9993
2 55153  87.9213 346.2195 0001400  81.6294 278.4997 13.18645865162570
