[{"OBJECT_NAME":"ONEWEB-0712","OBJECT_ID":"2022-166AQ","EPOCH":"2026-04-23T15:30:31.310208","MEAN_MOTION":13.16594188,"ECCENTRICITY":0.0002331,"INCLINATION":87.9079,"RA_OF_ASC_NODE":239.6062,"ARG_OF_PERICENTER":97.4522,"MEAN_ANOMALY":262.6874,"EPHEMERIS_TYPE":0,"CLASSIFICATION_TYPE":"U","NORAD_CAT_ID":54680,"ELEMENT_SET_NO":999,"REV_AT_EPOCH":16488,"BSTAR":0.00038981,"MEAN_MOTION_DOT":1.62e-06,"MEAN_MOTION_DDOT":0.0},{"OBJECT_NAME":"ONEWEB-0714","OBJECT_ID":"2022-166AR","EPOCH":"2026-04-23T16:07:27.810624","MEAN_MOTION":13.21824213,"ECCENTRICITY":0.0002105,"INCLINATION":87.9214,"RA_OF_ASC_NODE":254.8337,"ARG_OF_PERICENTER":98.736,"MEAN_ANOMALY":261.4013,"EPHEMERIS_TYPE":0,"CLASSIFICATION_TYPE":"U","NORAD_CAT_ID":54681,"ELEMENT_SET_NO":999,"REV_AT_EPOCH":16433,"BSTAR":0.00012343,"MEAN_MOTION_DOT":6.4e-07,"MEAN_MOTION_DDOT":0.0},{"OBJECT_NAME":"ONEWEB-0532","OBJECT_ID":"2023-004A","EPOCH":"2026-04-24T04:40:13.435680","MEAN_MOTION":13.17648679,"ECCENTRICITY":0.0001503,"INCLINATION":87.9186,"RA_OF_ASC_NODE":16.5925,"ARG_OF_PERICENTER":86.9691,"MEAN_ANOMALY":273.1612,"EPHEMERIS_TYPE":0,"CLASSIFICATION_TYPE":"U","NORAD_CAT_ID":55140,"ELEMENT_SET_NO":999,"REV_AT_EPOCH":16047,"BSTAR":0.00014607999999999998,"MEAN_MOTION_DOT":7e-07,"MEAN_MOTION_DDOT":0.0},{"OBJECT_NAME":"ONEWEB-0533","OBJECT_ID":"2023-004B","EPOCH":"2026-04-24T04:14:13.586496","MEAN_MOTION":13.12443014,"ECCENTRICITY":0.0001867,"INCLINATION":87.9002,"RA_OF_ASC_NODE":1.401,"ARG_OF_PERICENTER":85.4504,"MEAN_ANOMALY":274.6837,"EPHEMERIS_TYPE":0,"CLASSIFICATION_TYPE":"U","NORAD_CAT_ID":55141,"ELEMENT_SET_NO":999,"REV_AT_EPOCH":16097,"BSTAR":-0.0011134,"MEAN_MOTION_DOT":-3.88e-06,"MEAN_MOTION_DDOT":0.0},{"OBJECT_NAME":"ONEWEB-0541","OBJECT_ID":"2023-004C","EPOCH":"2026-04-24T05:46:18.022368","MEAN_MOTION":13.11415837,"ECCENTRICITY":0.0001685,"INCLINATION":87.8931,"RA_OF_ASC_NODE":31.7787,"ARG_OF_PERICENTER":74.7848,"MEAN_ANOMALY":285.3467,"EPHEMERIS_TYPE":0,"CLASSIFICATION_TYPE":"U","NORAD_CAT_ID":55142,"ELEMENT_SET_NO":999,"REV_AT_EPOCH":15887,"BSTAR":-0.00024292,"MEAN_MOTION_DOT":-7.3e-07,"MEAN_MOTION_DDOT":0.0},{"OBJECT_NAME":"ONEWEB-0543","OBJECT_ID":"2023-004D","EPOCH":"2026-04-24T03:21:16.623072","MEAN_MOTION":13.18682006,"ECCENTRICITY":0.0001985,"INCLINATION":87.9195,"RA_OF_ASC_NODE":346.224,"ARG_OF_PERICENTER":79.437,"MEAN_ANOMALY":280.6986,"EPHEMERIS_TYPE":0,"CLASSIFICATION_TYPE":"U","NORAD_CAT_ID":55143,"ELEMENT_SET_NO":999,"REV_AT_EPOCH":16257,"BSTAR":-0.00054113,"MEAN_MOTION_DOT":-2e-06,"MEAN_MOTION_DDOT":0.0},{"OBJECT_NAME":"ONEWEB-0544","OBJECT_ID":"2023-004E","EPOCH":"2026-04-24T03:11:44.336256","MEAN_MOTION":13.18692831,"ECCENTRICITY":0.0001726,"INCLINATION":87.9197,"RA_OF_ASC_NODE":346.2248,"ARG_OF_PERICENTER":74.5984,"MEAN_ANOMALY":285.5339,"EPHEMERIS_TYPE":0,"CLASSIFICATION_TYPE":"U","NORAD_CAT_ID":55144,"ELEMENT_SET_NO":999,"REV_AT_EPOCH":16257,"BSTAR":0.0022061,"MEAN_MOTION_DOT":8.83e-06,"MEAN_MOTION_DDOT":0.0},{"OBJECT_NAME":"ONEWEB-0560","OBJECT_ID":"2023-004F","EPOCH":"2026-04-24T04:51:28.852128","MEAN_MOTION":13.18705122,"ECCENTRICITY":0.0001924,"INCLINATION":87.9199,"RA_OF_ASC_NODE":346.2,"ARG_OF_PERICENTER":78.6995,"MEAN_ANOMALY":281.4353,"EPHEMERIS_TYPE":0,"CLASSIFICATION_TYPE":"U","NORAD_CAT_ID":55145,"ELEMENT_SET_NO":999,"REV_AT_EPOCH":16259,"BSTAR":0.0033783000000000003,"MEAN_MOTION_DOT":1.345e-05,"MEAN_MOTION_DDOT":0.0},{"OBJECT_NAME":"ONEWEB-0565","OBJECT_ID":"2023-004G","EPOCH":"2026-04-24T04:41:55.204512","MEAN_MOTION":13.1872611,"ECCENTRICITY":0.0001413,"INCLINATION":87.9197,"RA_OF_ASC_NODE":346.2326,"ARG_OF_PERICENTER":73.2702,"MEAN_ANOMALY":286.8585,"EPHEMERIS_TYPE":0,"CLASSIFICATION_TYPE":"U","NORAD_CAT_ID":55146,"ELEMENT_SET_NO":999,"REV_AT_EPOCH":16258,"BSTAR":0.0037969,"MEAN_MOTION_DOT":1.511e-05,"MEAN_MOTION_DDOT":0.0},{"OBJECT_NAME":"ONEWEB-0567","OBJECT_ID":"2023-004H","EPOCH":"2026-04-24T04:32:22.746624","MEAN_MOTION":13.18744224,"ECCENTRICITY":0.0001577,"INCLINATION":87.9202,"RA_OF_ASC_NODE":346.2159,"ARG_OF_PERICENTER":67.0573,"MEAN_ANOMALY":293.0726,"EPHEMERIS_TYPE":0,"CLASSIFICATION_TYPE":"U","NORAD_CAT_ID":55147,"ELEMENT_SET_NO":999,"REV_AT_EPOCH":16258,"BSTAR":0.0095774,"MEAN_MOTION_DOT":3.794e-05,"MEAN_MOTION_DDOT":0.0},{"OBJECT_NAME":"ONEWEB-0569","OBJECT_ID":"2023-004J","EPOCH":"2026-04-24T03:36:49.040640","MEAN_MOTION":13.13469796,"ECCENTRICITY":0.0002025,"INCLINATION":87.8977,"RA_OF_ASC_NODE":330.9803,"ARG_OF_PERICENTER":57.845,"MEAN_ANOMALY":302.2875,"EPHEMERIS_TYPE":0,"CLASSIFICATION_TYPE":"U","NORAD_CAT_ID":55148,"ELEMENT_SET_NO":999,"REV_AT_EPOCH":16308,"BSTAR":-0.00019374,"MEAN_MOTION_DOT":-5.8e-07,"MEAN_MOTION_DDOT":0.0},{"OBJECT_NAME":"ONEWEB-0570","OBJECT_ID":"2023-004K","EPOCH":"2026-04-24T04:18:29.089440","MEAN_MOTION":13.18636814,"ECCENTRICITY":0.0001403,"INCLINATION":87.9198,"RA_OF_ASC_NODE":346.2154,"ARG_OF_PERICENTER":99.6218,"MEAN_ANOMALY":260.5073,"EPHEMERIS_TYPE":0,"CLASSIFICATION_TYPE":"U","NORAD_CAT_ID":55149,"ELEMENT_SET_NO":999,"REV_AT_EPOCH":16257,"BSTAR":-0.039358000000000004,"MEAN_MOTION_DOT":-0.00015466,"MEAN_MOTION_DDOT":0.0},{"OBJECT_NAME":"ONEWEB-0571","OBJECT_ID":"2023-004L","EPOCH":"2026-04-24T04:08:57.851520","MEAN_MOTION":13.18584007,"ECCENTRICITY":0.0002357,"INCLINATION":87.9198,"RA_OF_ASC_NODE":346.2157,"ARG_OF_PERICENTER":55.947,"MEAN_ANOMALY":304.1885,"EPHEMERIS_TYPE":0,"CLASSIFICATION_TYPE":"U","NORAD_CAT_ID":55150,"ELEMENT_SET_NO":999,"REV_AT_EPOCH":16258,"BSTAR":-0.0023392,"MEAN_MOTION_DOT":-9.08e-06,"MEAN_MOTION_DDOT":0.0},{"OBJECT_NAME":"ONEWEB-0572","OBJECT_ID":"2023-004M","EPOCH":"2026-04-24T05:23:57.654240","MEAN_MOTION":13.17647636,"ECCENTRICITY":0.0001669,"INCLINATION":87.9183,"RA_OF_ASC_NODE":16.5878,"ARG_OF_PERICENTER":73.8972,"MEAN_ANOMALY":286.2344,"EPHEMERIS_TYPE":0,"CLASSIFICATION_TYPE":"U","NORAD_CAT_ID":55151,"ELEMENT_SET_NO":999,"REV_AT_EPOCH":16037,"BSTAR":0.00017271000000000002,"MEAN_MOTION_DOT":8e-07,"MEAN_MOTION_DDOT":0.0},{"OBJECT_NAME":"ONEWEB-0573","OBJECT_ID":"2023-004N","EPOCH":"2026-04-24T03:59:24.846720","MEAN_MOTION":13.18624822,"ECCENTRICITY":0.00015,"INCLINATION":87.9198,"RA_OF_ASC_NODE":346.2189,"ARG_OF_PERICENTER":62.9505,"MEAN_ANOMALY":297.178,"EPHEMERIS_TYPE":0,"CLASSIFICATION_TYPE":"U","NORAD_CAT_ID":55152,"ELEMENT_SET_NO":999,"REV_AT_EPOCH":16257,"BSTAR":-0.014138000000000001,"MEAN_MOTION_DOT":-5.553e-05,"MEAN_MOTION_DDOT":0.0},{"OBJECT_NAME":"ONEWEB-0588","OBJECT_ID":"2023-004P","EPOCH":"2026-04-24T03:49:52.146048","MEAN_MOTION":13.18645865,"ECCENTRICITY":0.00014,"INCLINATION":87.9213,"RA_OF_ASC_NODE":346.2195,"ARG_OF_PERICENTER":81.6294,"MEAN_ANOMALY":278.4997,"EPHEMERIS_TYPE":0,"CLASSIFICATION_TYPE":"U","NORAD_CAT_ID":55153,"ELEMENT_SET_NO":999,"REV_AT_EPOCH":16257,"BSTAR":-0.012770000000000002,"MEAN_MOTION_DOT":-5.016e-05,"MEAN_MOTION_DDOT":0.0}]